0 IRIDIUM 33 DEB
1 35678U 97051RG  13282.59933772  .00008557  00000-0  24182-2 0  9143
2 35678 086.3706 121.9291 0009538 317.0635 103.0143 14.45539593227399
0 IRIDIUM 33 DEB
1 35678U 97051RG  13283.84468928  .00009900  00000-0  27970-2 0  9150
2 35678 086.3708 121.3953 0009431 312.4591 104.2687 14.45558003227575
0 IRIDIUM 33 DEB
1 35678U 97051RG  13286.00886061  .00007735  00000-0  21836-2 0  9174
2 35678 086.3709 120.4681 0009222 304.2012 207.8174 14.45586956227893
0 IRIDIUM 33 DEB
1 35678U 97051RG  13287.50811392  .00008402  00000-0  23714-2 0  9185
2 35678 086.3699 119.8247 0009126 298.5163 090.8609 14.45605135228105
0 IRIDIUM 33 DEB
1 35678U 97051RG  13288.28791786  .00012399  00000-0  34987-2 0  9190
2 35678 086.3695 119.4900 0009051 295.6295 189.4299 14.45623392228211
0 IRIDIUM 33 DEB
1 35678U 97051RG  13289.52110098  .00010975  00000-0  30952-2 0  9207
2 35678 086.3692 118.9611 0009008 290.7681 128.0418 14.45647820228391
0 IRIDIUM 33 DEB
1 35678U 97051RG  13290.83610134  .00009792  00000-0  27604-2 0  9215
2 35678 086.3690 118.3971 0008958 285.5373 132.6626 14.45670364228587
0 IRIDIUM 33 DEB
1 35678U 97051RG  13291.96217635  .00009064  00000-0  25540-2 0  9229
2 35678 086.3690 117.9140 0008920 281.2185 233.8451 14.45689955228758
0 IRIDIUM 33 DEB
1 35678U 97051RG  13292.99461061  .00009428  00000-0  26557-2 0  9231
2 35678 086.3692 117.4712 0008897 277.3025 207.6575 14.45707617228899
0 IRIDIUM 33 DEB
1 35678U 97051RG  13294.50555841  .00012085  00000-0  34026-2 0  9244
2 35678 086.3696 116.8231 0008878 271.2695 152.5498 14.45731411229114
0 IRIDIUM 33 DEB
1 35678U 97051RG  13295.97183856  .00011986  00000-0  33727-2 0  9256
2 35678 086.3699 116.1940 0008900 265.8364 224.6473 14.45759642229328
